[{"area":"3,180 sqft","city":"Redwood City","img":"http://thumbs.trulia-cdn.com/pictures/thumbs_3/ps.52/a/7/c/d/picture-uh=3f75d32463680d5f20e3d44a993bf2-ps=a7cd5fcaa7715476f23afb25deb303d.jpg","locality":"Redwood Shores","state":"CA","street":"901 Governors Bay Dr","type":"Single-Family Home","zip":"94065"},{"area":"","city":"Redwood City","img":"http://thumbs.trulia-cdn.com/pictures/thumbs_3/ps.51/3/f/e/b/picture-uh=3eaaa8d81c6c74d5ee26c86a273cfbf4-ps=3feb784287402bb4da8f2184231d94f.jpg","locality":"","state":"CA","street":"25 Estrada Pl","type":"Lot/Land","zip":"94062"},{"area":"820 sqft","city":"Redwood City","img":"http://thumbs.trulia-cdn.com/pictures/thumbs_3/ps.50/d/0/a/3/picture-uh=52c497ab622ad3f8cb2ddeb14e6ba1b9-ps=d0a3924317da9a7643df4c74c5614ece.jpg","locality":"Redwood Oaks","state":"CA","street":"55 Murray Ct","type":"Single-Family Home","zip":"94061"},{"area":"","city":"Redwood City","img":"http://thumbs.trulia-cdn.com/pictures/thumbs_3/ps.50/d/1/5/d/picture-uh=92cccc272524ef926e4269d82921409b-ps=d15d719ae335f754c6701b726ea1fc.jpg","locality":"Oak Knoll - Redwood Park","state":"CA","street":"353 Alameda De Las Pulgas","type":"Lot/Land","zip":"94062"},{"area":"2,000 sqft","city":"Redwood City","img":"http://thumbs.trulia-cdn.com/pictures/thumbs_3/ps.51/b/4/a/c/picture-uh=5a1fa57cb2be5930ea4d65819643e0-ps=b4ac14bf37a284897559bdb37bf23a.jpg","locality":"","state":"CA","street":"1548 Maple St #128","type":"Mobile/Manufactured","zip":"94063"},{"area":"3,080 sqft","city":"Redwood City","img":"http://thumbs.trulia-cdn.com/pictures/thumbs_3/ps.51/5/d/a/9/picture-uh=20312b65c4b086266b7d454280879f23-ps=5da96e3fc79bd4a6960b7347b1f4731.jpg","locality":"Redwood Oaks","state":"CA","street":"414 W Oakwood Blvd","type":"Single-Family Home","zip":"94061"},{"area":"1,175 sqft","city":"Redwood City","img":"http://thumbs.trulia-cdn.com/pictures/thumbs_3/ps.51/b/3/a/b/picture-uh=c3b4a3c1c55bfac4ce4837a7713cc5c-ps=b3ab2512b127f1e62b32b68a0789046.jpg","locality":"Palm Park","state":"CA","street":"1236 Clinton St #202","type":"Condo","zip":"94061"},{"area":"2,710 sqft","city":"Redwood City","img":"http://thumbs.trulia-cdn.com/pictures/thumbs_3/ps.52/6/7/f/d/picture-uh=4562880c04d55fa07658c2ad461671-ps=67fd662e40154f8fab89d3be787bcac8.jpg","locality":"Redwood Shores","state":"CA","street":"2029 Rockport Ave","type":"Single-Family Home","zip":"94065"},{"area":"1,500 sqft","city":"Redwood City","img":"http://thumbs.trulia-cdn.com/pictures/thumbs_3/ps.52/c/a/7/e/picture-uh=8856a9b0dd53871679b5dfd66019c2-ps=ca7e5cc4f428221fad16c6f0e43b8.jpg","locality":"Roosevelt","state":"CA","street":"928 Johnson St","type":"Single-Family Home","zip":"94061"},{"area":"1,178 sqft","city":"Redwood City","img":"http://thumbs.trulia-cdn.com/pictures/thumbs_3/ps.50/a/8/7/1/picture-uh=88dd9eae56c98f8ab620e9863cb382-ps=a871be35ceccc78da1af12412f0fa.jpg","locality":"Redwood Shores","state":"CA","street":"6 Chart Ln","type":"Condo","zip":"94065"},{"area":"2,653 sqft","city":"Redwood City","img":"http://thumbs.trulia-cdn.com/pictures/thumbs_3/ps.52/d/d/5/2/picture-uh=b34ded67c5576a46a34e4fe070ddd810-ps=dd522716e2925d7536ab6e989f62a6e.jpg","locality":"","state":"CA","street":"219 Cerrito Ave","type":"Single-Family Home","zip":"94061"},{"area":"1,910 sqft","city":"Redwood City","img":"http://thumbs.trulia-cdn.com/pictures/thumbs_3/ps.52/b/f/6/1/picture-uh=bb423cfc43988de44aa91626bfd5a59-ps=bf6155db372d374538cb216a1e9c7f20.jpg","locality":"Woodside Plaza","state":"CA","street":"1563 Maddux Dr","type":"Single-Family Home","zip":"94061"},{"area":"","city":"Redwood City","img":"http://thumbs.trulia-cdn.com/pictures/thumbs_3/ps.49/5/4/d/1/picture-uh=6f4c6f59bd871084c12b8a918d2d7-ps=54d151a974993efd91d80a68b996cd.jpg","locality":"Palm Park","state":"CA","street":"1450-1454 Kentfield Ave","type":"Single-Family Home","zip":"94061"},{"area":"4,061 sqft","city":"Redwood City","img":"http://thumbs.trulia-cdn.com/pictures/thumbs_3/ps.51/6/5/7/5/picture-uh=9da08e64376cbd165a02ce5de17ec10-ps=6575119fd34993e6723cf3b02e29ef39.jpg","locality":"","state":"CA","street":"20 Rathgar Ct","type":"Single-Family Home","zip":"94062"},{"area":"2,660 sqft","city":"Redwood City","img":"http://thumbs.trulia-cdn.com/pictures/thumbs_3/ps.52/b/0/2/2/picture-uh=4d48faa28861f1481de1aad6fddcac-ps=b0221a983a24066c98e9b3ef4f45f8e.jpg","locality":"Farm Hills","state":"CA","street":"3564 Altamont Way","type":"Single-Family Home","zip":"94062"},{"area":"1,710 sqft","city":"Redwood City","img":"http://thumbs.trulia-cdn.com/pictures/thumbs_3/ps.52/f/4/6/7/picture-uh=422a48bf282a20458391dd91ae209a-ps=f467c3d413148b2d591d69d0cc12f4be.jpg","locality":"Redwood Shores","state":"CA","street":"103 Windlea Ln","type":"Single-Family Home","zip":"94065"},{"area":"1,323 sqft","city":"Redwood City","img":"http://thumbs.trulia-cdn.com/pictures/thumbs_3/ps.51/7/c/2/d/picture-uh=12faff66539210c784b3daff24c0ba-ps=7c2d369b6f291813d557c255ab87.jpg","locality":"Redwood Shores","state":"CA","street":"585 Shoal Cir","type":"Apt/Condo/Twnhm","zip":"94065"},{"area":"6,090 sqft","city":"Redwood City","img":"http://thumbs.trulia-cdn.com/pictures/thumbs_3/ps.50/6/0/d/9/picture-uh=e93788ea69223ecac203b30fe243662-ps=60d9b94753f37b8c6f88d1c5e0fc.jpg","locality":"Farm Hills","state":"CA","street":"17 Colton Ct","type":"Single-Family Home","zip":"94062"},{"area":"910 sqft","city":"Redwood City","img":"http://thumbs.trulia-cdn.com/pictures/thumbs_3/ps.51/a/9/f/5/picture-uh=26ca43511ab63241f02a5b51debae-ps=a9f52b177b9e77768b9ac76cd4475b5.jpg","locality":"Roosevelt","state":"CA","street":"615 Hawes St","type":"Single-Family Home","zip":"94061"},{"area":"1,220 sqft","city":"Redwood City","img":"http://thumbs.trulia-cdn.com/pictures/thumbs_3/ps.52/d/8/6/8/picture-uh=a9f0951cb9ed36d87eca6c51d388a-ps=d868c2f4cfaab82994105342403ffcf2.jpg","locality":"Woodside Plaza","state":"CA","street":"1220 Westwood St","type":"Single-Family Home","zip":"94061"},{"area":"3,200 sqft","city":"Redwood City","img":"http://thumbs.trulia-cdn.com/pictures/thumbs_3/ps.51/a/7/6/9/picture-uh=40beb2233c40c3ce133b9e584d4324f-ps=a7692efa8a995aa1cff49b742d6cfe92.jpg","locality":"","state":"CA","street":"210 Montalvo Rd","type":"Single-Family Home","zip":"94062"},{"area":"4,430 sqft","city":"Redwood City","img":"http://thumbs.trulia-cdn.com/pictures/thumbs_3/ps.51/a/7/5/e/picture-uh=4a2af8f94094b5622bf85487969bef92-ps=a75edd298639657abb4ebf229716.jpg","locality":"Farm Hills","state":"CA","street":"13 Woodleaf Ave","type":"Single-Family Home","zip":"94061"},{"area":"1,189 sqft","city":"Redwood City","img":"http://thumbs.trulia-cdn.com/pictures/thumbs_3/ps.50/e/d/c/f/picture-uh=7092272fa51f3a582951f0741e37336a-ps=edcf46a6d52388d98bcfbec21cb6327.jpg","locality":"Redwood Village","state":"CA","street":"601 Douglas Ave","type":"Single-Family Home","zip":"94063"},{"area":"1,820 sqft","city":"Redwood City","img":"http://thumbs.trulia-cdn.com/pictures/thumbs_3/ps.51/3/a/3/6/picture-uh=9decd41a896cc2d8486732b340a13a-ps=3a361c972ab5651029589705dcee57a.jpg","locality":"Oak Knoll - Redwood Park","state":"CA","street":"39 Edgewood Rd","type":"Single-Family Home","zip":"94062"},{"area":"","city":"Redwood City","img":"http://thumbs.trulia-cdn.com/pictures/thumbs_3/ps.50/d/1/5/d/picture-uh=56bcf6a7116b1def56b8e697ddde20d1-ps=d15d719ae335f754c6701b726ea1fc.jpg","locality":"Oak Knoll - Redwood Park","state":"CA","street":"355 Alameda De Las Pulgas","type":"Lot/Land","zip":"94062"},{"area":"1,300 sqft","city":"Redwood City","img":"http://thumbs.trulia-cdn.com/pictures/thumbs_3/ps.52/5/7/3/b/picture-uh=c081f2c59d3a7cd4a157391749a522cf-ps=573b9f811c2c83ff517967758c9b6.jpg","locality":"Redwood Shores","state":"CA","street":"540 Shorebird Cir #21104","type":"Condo","zip":"94065"},{"area":"","city":"Redwood City","img":"http://thumbs.trulia-cdn.com/pictures/thumbs_3/ps.52/6/5/f/d/picture-uh=43e5e9b6fb6720a1edfb730e971fe-ps=65fd0597b2e2fb98334c44af9de6e8.jpg","locality":"Woodside Plaza","state":"CA","street":"1326 Woodside Rd","type":"Apt/Condo/Twnhm","zip":"94061"},{"area":"1,323 sqft","city":"Redwood City","img":"http://thumbs.trulia-cdn.com/pictures/thumbs_3/ps.52/9/7/2/7/picture-uh=1f8dbf8f40185054f86f44990516c3-ps=97278fa861105c6b31134ac1beb1222.jpg","locality":"Redwood Shores","state":"CA","street":"579 Shoal Cir #75","type":"Townhome","zip":"94065"},{"area":"","city":"Redwood City","img":"http://thumbs.trulia-cdn.com/pictures/thumbs_3/ps.52/9/7/a/e/picture-uh=01f96baa65fcc2c5f748aad893e70ce-ps=97ae418f842bafba2add314c3cc3ea4.jpg","locality":"Roosevelt","state":"CA","street":"1224 Roosevelt Ave","type":"Multi-Family Home","zip":"94061"},{"area":"2,520 sqft","city":"Redwood City","img":"http://thumbs.trulia-cdn.com/pictures/thumbs_3/ps.51/9/7/3/4/picture-uh=328b5f18638cc1fa13a23f4d2dc64950-ps=97344bf05c6db9ec5c2ccc3915b76ec1.jpg","locality":"","state":"CA","street":"2074 Stockbridge Ave","type":"Single-Family Home","zip":"94061"},{"area":"","city":"Redwood City","img":"http://thumbs.trulia-cdn.com/pictures/thumbs_3/ps.49/c/b/9/b/picture-uh=5ed63d552d113605e3f2d1098f69d2f-ps=cb9b3268eed3134d97e2d6524e41f77.jpg","locality":"Palm Park","state":"CA","street":"137 Redwood Ave","type":"Lot/Land","zip":"94061"},{"area":"2,510 sqft","city":"Redwood City","img":"http://thumbs.trulia-cdn.com/pictures/thumbs_3/ps.52/1/c/5/b/picture-uh=6d426b2df65fce8b41b72cf546742b3-ps=1c5b8fd91bcf8d31dff36569ac9.jpg","locality":"Roosevelt","state":"CA","street":"926 Madison Ave","type":"Single-Family Home","zip":"94061"},{"area":"1,301 sqft","city":"Redwood City","img":"http://thumbs.trulia-cdn.com/pictures/thumbs_3/ps.52/1/3/d/f/picture-uh=ab3e866c3ec1835e88a9d1252c7e664-ps=13df4e8fdc7e3fac56a8bd55b43be91.jpg","locality":"Redwood Shores","state":"CA","street":"200 Baltic Cir #228","type":"Apt/Condo/Twnhm","zip":"94065"},{"area":"2,010 sqft","city":"Redwood City","img":"http://thumbs.trulia-cdn.com/pictures/thumbs_3/ps.52/6/c/1/e/picture-uh=4ca16f3fd56ae92cf6f9c5e4d9e11da-ps=6c1e142393893d7701d1f9892962a43.jpg","locality":"Roosevelt","state":"CA","street":"2032 Roosevelt Ave","type":"Single-Family Home","zip":"94061"},{"area":"2,660 sqft","city":"Redwood City","img":"http://thumbs.trulia-cdn.com/pictures/thumbs_3/ps.52/3/a/8/7/picture-uh=594df75c4b74555922771740f1b93ed-ps=3a877dcb27cc6a443981dd9c124ac.jpg","locality":"Redwood Shores","state":"CA","street":"807 Schooner Bay Dr","type":"Single-Family Home","zip":"94065"},{"area":"2,400 sqft","city":"Redwood City","img":"http://thumbs.trulia-cdn.com/pictures/thumbs_3/ps.52/e/a/c/f/picture-uh=c4e039f04f68872e61ea163bf6aeee98-ps=eacf7f7627745b549181a20893426ef.jpg","locality":"Roosevelt","state":"CA","street":"475 Avenue Del Ora","type":"Single-Family Home","zip":"94062"},{"area":"1,750 sqft","city":"Redwood City","img":"http://thumbs.trulia-cdn.com/pictures/thumbs_3/ps.52/9/4/d/0/picture-uh=96986a58cbd3a1201b269a4a1e4b30-ps=94d0d2cefdb67a4ecdf97d7051394e27.jpg","locality":"Roosevelt","state":"CA","street":"1615 James Ave","type":"Single-Family Home","zip":"94062"},{"area":"1,000 sqft","city":"Redwood City","img":"http://thumbs.trulia-cdn.com/pictures/thumbs_3/ps.52/e/c/b/8/picture-uh=f527564d6bdcc1c150dea0338cc15a-ps=ecb8f755461a701c1bd7e62ca8969a.jpg","locality":"Redwood Oaks","state":"CA","street":"344 Center St","type":"Single-Family Home","zip":"94061"},{"area":"1,380 sqft","city":"Redwood City","img":"http://thumbs.trulia-cdn.com/pictures/thumbs_3/ps.52/a/f/1/4/picture-uh=43a5ef6ad6c63d978d70a8315a84759b-ps=af1448cd6822824bdb2957a47e77ac.jpg","locality":"Roosevelt","state":"CA","street":"1600 Jefferson Ave","type":"Single-Family Home","zip":"94062"},{"area":"960 sqft","city":"Redwood City","img":"http://thumbs.trulia-cdn.com/pictures/thumbs_3/ps.52/6/f/a/d/picture-uh=e32781a07b39ed6232955b78c42542e9-ps=6fadd1c36050be3c9e24a0b01dd34f72.jpg","locality":"","state":"CA","street":"3015 E Bayshore Rd #393","type":"Mobile/Manufactured","zip":"94063"},{"area":"1,843 sqft","city":"Redwood City","img":"http://thumbs.trulia-cdn.com/pictures/thumbs_3/ps.52/3/6/6/4/picture-uh=526a5081a35537e66b3e1a4edf77c34b-ps=3664e49b1e8e5e7329e63d3d4d5354c.jpg","locality":"Woodside Plaza","state":"CA","street":"1188 Truman St","type":"Single-Family Home","zip":"94061"},{"area":"1,770 sqft","city":"Redwood City","img":"http://thumbs.trulia-cdn.com/pictures/thumbs_3/ps.52/7/e/f/2/picture-uh=a0623a64b5b8e73ea01aefeaae1a666-ps=7ef2f938ad52c8fc78c02d7625f046be.jpg","locality":"Woodside Plaza","state":"CA","street":"1991 Fernside St","type":"Single-Family Home","zip":"94061"},{"area":"1,500 sqft","city":"Redwood City","img":"http://thumbs.trulia-cdn.com/pictures/thumbs_3/ps.52/a/b/b/0/picture-uh=f07d97f1feda2656d1a6b7dab41cd140-ps=abb0bff61f4cc4b2cf7a59484d7d4.jpg","locality":"Roosevelt","state":"CA","street":"599 Quartz St","type":"Single-Family Home","zip":"94062"},{"area":"1,480 sqft","city":"Redwood City","img":"http://thumbs.trulia-cdn.com/pictures/thumbs_3/ps.52/b/1/2/2/picture-uh=28eb18d5d977abcd9dde2fa1f5055-ps=b1224ad27753ac23ee1f338db2af99c.jpg","locality":"","state":"CA","street":"523 Hillside Rd","type":"Single-Family Home","zip":"94062"},{"area":"960 sqft","city":"Redwood City","img":"http://thumbs.trulia-cdn.com/pictures/thumbs_3/ps.52/5/b/3/0/picture-uh=b6ec188fd5eb44d42477147bee6d5c1b-ps=5b30ae6e54c5f1b2be29f8ea2f4b0a7.jpg","locality":"","state":"CA","street":"3015 E Bayshore Rd #189","type":"Mobile/Manufactured","zip":"94063"},{"area":"1,620 sqft","city":"Redwood City","img":"http://thumbs.trulia-cdn.com/pictures/thumbs_3/ps.52/5/a/9/c/picture-uh=4b61631a1acccce81f451f981d761730-ps=5a9c4159d0758c5ccfe3daea2b4ad0.jpg","locality":"Palm Park","state":"CA","street":"1565 Oxford St","type":"Condo","zip":"94061"},{"area":"1,500 sqft","city":"Redwood City","img":"http://thumbs.trulia-cdn.com/pictures/thumbs_3/ps.52/0/8/f/5/picture-uh=48c275589ad73062e2d51f46d5d35775-ps=08f59774fc868ac4aeb2d711045b842.jpg","locality":"Roosevelt","state":"CA","street":"1128 Cleveland St","type":"Single-Family Home","zip":"94061"},{"area":"1,610 sqft","city":"Redwood City","img":"http://thumbs.trulia-cdn.com/pictures/thumbs_3/ps.52/4/d/d/a/picture-uh=d8ed41d1774e07b8c334dc01ea194e0-ps=4ddabc5bdcc66864ecf4cf80fa5169.jpg","locality":"Palm Park","state":"CA","street":"1520 Union Ave","type":"Single-Family Home","zip":"94061"},{"area":"1,640 sqft","city":"Redwood City","img":"http://thumbs.trulia-cdn.com/pictures/thumbs_3/ps.52/e/6/8/3/picture-uh=71d28cc2a6e8bd899466b23a5ad832-ps=e683a61c7747e318a9dde79d2f259d8.jpg","locality":"Woodside Plaza","state":"CA","street":"1437 Connecticut Dr","type":"Single-Family Home","zip":"94061"},{"area":"990 sqft","city":"Redwood City","img":"http://thumbs.trulia-cdn.com/pictures/thumbs_3/ps.52/9/e/5/e/picture-uh=7f4a181fe13394f665fff79453cf5f-ps=9e5e71dfab9984e2271b5e18334c2b59.jpg","locality":"Centennial","state":"CA","street":"334 D St","type":"Single-Family Home","zip":"94063"},{"area":"1,026 sqft","city":"Redwood City","img":"http://thumbs.trulia-cdn.com/pictures/thumbs_3/ps.52/6/b/3/4/picture-uh=c9a83943f9767e3c2ecc7e48accbf3f-ps=6b34af43526d9e2783dc9029684996df.jpg","locality":"Centennial","state":"CA","street":"216 Alden St","type":"Townhome","zip":"94063"},{"area":"","city":"Redwood City","img":"http://thumbs.trulia-cdn.com/pictures/thumbs_3/ps.51/c/4/a/1/picture-uh=64daa708efa43a3daafeae725b123e1-ps=c4a15a9d66aa3435a61208b346e42fb.jpg","locality":"Palm Park","state":"CA","street":"946 Palm Ave","type":"Lot/Land","zip":"94061"},{"area":"","city":"Redwood City","img":"http://thumbs.trulia-cdn.com/pictures/thumbs_3/ps.52/9/3/e/a/picture-uh=618b317481bf82d32e42c5b278c155-ps=93ea4cde8e725b64653334d1497ee552.jpg","locality":"","state":"CA","street":"5 El Vanada Rd","type":"Lot/Land","zip":"94062"},{"area":"1,460 sqft","city":"Redwood City","img":"http://thumbs.trulia-cdn.com/pictures/thumbs_3/ps.51/b/e/6/a/picture-uh=c038122ac7c0974b25fbb4a77f4b476-ps=be6aa3bfd5f6cc1f2ec72213c6addee8.jpg","locality":"Friendly Acres","state":"CA","street":"3332 Bay Rd","type":"Single-Family Home","zip":"94063"},{"area":"4,320 sqft","city":"Redwood City","img":"http://thumbs.trulia-cdn.com/pictures/thumbs_3/ps.51/b/b/d/1/picture-uh=89c9c3f8c9cd1f3de708caa3d28219c-ps=bbd15365bcc90e4c3bbc3806cec6f.jpg","locality":"Friendly Acres","state":"CA","street":"102 Wayne Ct E","type":"Multi-Family Home","zip":"94063"},{"area":"2,400 sqft","city":"Redwood City","img":"http://thumbs.trulia-cdn.com/pictures/thumbs_3/ps.51/f/d/2/9/picture-uh=6d8f97f8a0cbe41c6ea3d06252b55f3-ps=fd2904aa143f4ea894d1298eacf742.jpg","locality":"Farm Hills","state":"CA","street":"29 Alverno Ct","type":"Townhome","zip":"94061"},{"area":"","city":"Redwood City","img":"http://thumbs.trulia-cdn.com/pictures/thumbs_3/ps.51/b/b/b/b/picture-uh=8349cf91dd12e7724eba6d3dba5f70-ps=bbbb1b3ef1cf90e8369fd5c453a923b.jpg","locality":"","state":"CA","street":"2872 Westmoreland Ave","type":"Multi-Family Home","zip":"94063"},{"area":"1,000 sqft","city":"Redwood City","img":"http://thumbs.trulia-cdn.com/pictures/thumbs_3/ps.51/8/f/2/c/picture-uh=b5e79bff2298448f9bf89b6e1cb3826-ps=8f2c43823faa4c858199319d8f3cfd8b.jpg","locality":"","state":"CA","street":"3015 E Bayshore Rd #180","type":"Mobile/Manufactured","zip":"94063"},{"area":"1,975 sqft","city":"Redwood City","img":"http://thumbs.trulia-cdn.com/pictures/thumbs_3/ps.51/2/c/d/b/picture-uh=64715074f845481d1b93c6654e4848a-ps=2cdb2ecbe7c539d3ff58e9b7972d11fb.jpg","locality":"Woodside Plaza","state":"CA","street":"1682 Valota Rd","type":"Single-Family Home","zip":"94061"},{"area":"2,400 sqft","city":"Redwood City","img":"http://thumbs.trulia-cdn.com/pictures/thumbs_3/ps.51/8/d/2/6/picture-uh=5b890e8c722559f645388b3b37983-ps=8d268b2a975572695c37d7f79d4afd.jpg","locality":"Redwood Oaks","state":"CA","street":"204 Bradbury Ln","type":"Single-Family Home","zip":"94061"},{"area":"1,296 sqft","city":"Redwood City","img":"http://thumbs.trulia-cdn.com/pictures/thumbs_3/ps.51/a/3/b/b/picture-uh=364f93ddec7f5f83db9cfcc97b87fbb-ps=a3bb49ff4ec258b9511f8aec893ed777.jpg","locality":"Palm Park","state":"CA","street":"1148 Woodside Rd","type":"Condo","zip":"94061"},{"area":"950 sqft","city":"Redwood City","img":"http://thumbs.trulia-cdn.com/pictures/thumbs_3/ps.51/8/3/4/e/picture-uh=6da7b03b5d34b3b529d9f7b81980cd6a-ps=834e15412a9179e169544654dc396e20.jpg","locality":"Centennial","state":"CA","street":"326 A St","type":"Single-Family Home","zip":"94063"},{"area":"4,530 sqft","city":"Redwood City","img":"http://thumbs.trulia-cdn.com/pictures/thumbs_3/ps.51/e/4/a/5/picture-uh=9a439da87387f96b31709d2251c58ba3-ps=e4a5b473583c8f549f6fbbcea0866a88.jpg","locality":"","state":"CA","street":"36 Finger Ave","type":"Single-Family Home","zip":"94062"},{"area":"3,920 sqft","city":"Redwood City","img":"http://thumbs.trulia-cdn.com/pictures/thumbs_3/ps.50/f/e/2/f/picture-uh=646294aa94d5d8a4c93a0e2ebaa814d-ps=fe2f701567b1c943c7ebf5d4f7cfc59.jpg","locality":"Oak Knoll - Redwood Park","state":"CA","street":"1816 Hopkins Ave","type":"Single-Family Home","zip":"94062"},{"area":"1,040 sqft","city":"Redwood City","img":"http://thumbs.trulia-cdn.com/pictures/thumbs_3/ps.50/7/b/8/9/picture-uh=edc7f2d62e5c789f17176c4d65f1fca-ps=7b895cc75a90f530723c4294d8b9.jpg","locality":"","state":"CA","street":"636 Palomar Dr","type":"Single-Family Home","zip":"94062"},{"area":"","city":"Redwood City","img":"http://thumbs.trulia-cdn.com/pictures/thumbs_3/ps.51/d/4/b/f/picture-uh=d2d1de6a2c728b914019e75dcc9a8a9c-ps=d4bf3fefefc13b723914587261e1f873.jpg","locality":"","state":"CA","street":" Palomar Dr","type":"Lot/Land","zip":"94062"},{"area":"","city":"Redwood City","img":"http://thumbs.trulia-cdn.com/pictures/thumbs_3/ps.49/c/5/2/f/picture-uh=d626765d8cd56c4ec5e714ef26048e5-ps=c52f912d9da0235522e692d9fe6a9d70.jpg","locality":"Redwood Village","state":"CA","street":"2579 Middlefield Rd","type":"Income/Investment","zip":"94063"},{"area":"1,040 sqft","city":"Redwood City","img":"http://thumbs.trulia-cdn.com/pictures/thumbs_3/ps.49/8/9/2/a/picture-uh=eaf2ddf33ba9e27ed8630ddaac345bf-ps=892a71abf2bf3e621b38e5aafafcd.jpg","locality":"","state":"CA","street":"2053 E Bayshore Rd #91","type":"Mobile/Manufactured","zip":"94063"},{"area":"1,120 sqft","city":"Redwood City","img":"http://thumbs.trulia-cdn.com/pictures/thumbs_3/ps.52/f/4/f/a/picture-uh=6b6e8c94442829a357efc9d984777029-ps=f4fadc974daa8a8ff399d3dec3428932.jpg","locality":"Palm Park","state":"CA","street":"1259 Ebener St","type":"Single-Family Home","zip":"94061"},{"area":"","city":"Redwood City","img":"http://thumbs.trulia-cdn.com/pictures/thumbs_3/ps.49/e/c/9/1/picture-uh=755b7cb48880ee7ae354b49a15c38b2-ps=ec918d91f91df63634e5e05be45ec2.jpg","locality":"Friendly Acres","state":"CA","street":"3158 Hoover St","type":"Multi-Family Home","zip":"94063"},{"area":"1,469 sqft","city":"Redwood City","img":"http://thumbs.trulia-cdn.com/pictures/thumbs_3/ps.51/d/0/5/9/picture-uh=85e0238aa19e22c11e4e6c6cfda45a2-ps=d059c569df69b41dfa9947d8e039c6.jpg","locality":"Roosevelt","state":"CA","street":"874 Cleveland St","type":"Single-Family Home","zip":"94061"},{"area":"3,495 sqft","city":"Redwood City","img":"http://thumbs.trulia-cdn.com/pictures/thumbs_3/ps.48/1/3/6/1/picture-uh=2ea1d494a3b9fec8fd1e42e8eb292aa-ps=1361b92499c49c466369a1923a96d79a.jpg","locality":"","state":"CA","street":"765 Warrington Ave","type":"Income/Investment","zip":"94063"},{"area":"1,730 sqft","city":"Redwood City","img":"http://thumbs.trulia-cdn.com/pictures/thumbs_3/ps.47/3/6/7/a/picture-uh=b574d564db876a753c8aaa26c293a1d5-ps=367ae37f6ae1e22c5bd77717180159d.jpg","locality":"Oak Knoll - Redwood Park","state":"CA","street":"2628 Brewster Ave","type":"Single-Family Home","zip":"94062"},{"area":"1,650 sqft","city":"Redwood City","img":"http://thumbs.trulia-cdn.com/pictures/thumbs_3/ps.51/6/5/9/8/picture-uh=724f8f4556b9c6bce5ca0c8e5a4e5c3-ps=65985594182cb677c3e30a4fc8931b7.jpg","locality":"Woodside Plaza","state":"CA","street":"1252 Fairview Ave","type":"Single-Family Home","zip":"94061"},{"area":"1,530 sqft","city":"Redwood City","img":"http://thumbs.trulia-cdn.com/pictures/thumbs_3/ps.52/d/b/a/0/picture-uh=a0d8c7bdb3856e44a8706ba01b3140d2-ps=dba0e85ac38facb43684e03be6f68963.jpg","locality":"Roosevelt","state":"CA","street":"1922 Harding Ave","type":"Single-Family Home","zip":"94062"},{"area":"730 sqft","city":"Redwood City","img":"http://thumbs.trulia-cdn.com/pictures/thumbs_3/ps.49/8/0/5/f/picture-uh=33c6605975beaa20edab6e5cb0525aa-ps=805f96b58a6eb493517072bde7372fbb.jpg","locality":"","state":"CA","street":"2665 Marlborough Ave","type":"Single-Family Home","zip":"94063"},{"area":"606 sqft","city":"Redwood City","img":"http://thumbs.trulia-cdn.com/pictures/thumbs_3/ps.49/2/3/a/f/picture-uh=b56c5312f3d33a138699dd24f5d2e3d-ps=23afad1b38dfbf6d2533e93bba2c82ff.jpg","locality":"Palm Park","state":"CA","street":"1614 Hudson St #106","type":"Condo","zip":"94061"},{"area":"","city":"Redwood City","img":"http://thumbs.trulia-cdn.com/pictures/thumbs_3/ps.51/2/c/9/0/picture-uh=a12c1e53f9c697b5ea97dfe87f8bf5de-ps=2c9093d6eef07dbc76be3d669fc47459.jpg","locality":"Redwood Shores","state":"CA","street":"858 Lakeshore Dr","type":"Townhome","zip":"94065"},{"area":"1,960 sqft","city":"Redwood City","img":"http://thumbs.trulia-cdn.com/pictures/thumbs_3/ps.52/9/c/3/c/picture-uh=ea4d29c896054af768b2195da95e6b-ps=9c3c2be0babd9bf91febb29cb921add.jpg","locality":"","state":"CA","street":"Address Not Disclosed","type":"Single-Family Home","zip":"94063"},{"area":"","city":"Redwood City","img":"http://thumbs.trulia-cdn.com/pictures/thumbs_3/ps.49/d/7/3/6/picture-uh=ca9cd63188d87828fee98df3b6aa14e-ps=d736a4b3d81e919f8f11b6c9390ee92.jpg","locality":"","state":"CA","street":" Glenloch Way","type":"Lot/Land","zip":"94062"},{"area":"940 sqft","city":"Redwood City","img":"http://thumbs.trulia-cdn.com/pictures/thumbs_3/ps.52/1/6/8/4/picture-uh=fc034f46dcb7c8816d460e66c38a5ad-ps=16849cef1752666369cde10cd39b74c.jpg","locality":"Staumbaugh Heller","state":"CA","street":"302 Spring St","type":"Single-Family Home","zip":"94063"},{"area":"1,210 sqft","city":"Redwood City","img":"http://thumbs.trulia-cdn.com/pictures/thumbs_3/ps.52/4/2/d/5/picture-uh=18e8f6387a67529fbb700b43c5b76-ps=42d5f123afd62795bc7e4e97d121847.jpg","locality":"","state":"CA","street":"171 Buckingham Ave","type":"Single-Family Home","zip":"94063"},{"area":"","city":"Redwood City","img":"http://thumbs.trulia-cdn.com/pictures/thumbs_3/ps.52/b/0/e/2/picture-uh=f038d810512bd2c22a6fa63103e6ba-ps=b0e2eb83bd364714a224b29e686339b.jpg","locality":"Farm Hills","state":"CA","street":"4000 Farm Hill Blvd","type":"Single-Family Home","zip":"94061"},{"area":"1,630 sqft","city":"Redwood City","img":"http://thumbs.trulia-cdn.com/pictures/thumbs_3/ps.51/a/5/e/a/picture-uh=edc11cb3c346c938de65a92cea5e3a2-ps=a5ea6ac219346ab6b0849eb1263468.jpg","locality":"Farm Hills","state":"CA","street":"3726 Farm Hill Blvd","type":"Single-Family Home","zip":"94061"},{"area":"","city":"Redwood City","img":"http://thumbs.trulia-cdn.com/pictures/thumbs_3/ps.51/6/b/8/0/picture-uh=212455d4c0fed239a96fe07892abd8d4-ps=6b803bd75b6ae3eebd12aaa449fd1b.jpg","locality":"Redwood Oaks","state":"CA","street":"617 Fox Ct E","type":"Single-Family Home","zip":"94061"},{"area":"","city":"Redwood City","img":"http://thumbs.trulia-cdn.com/pictures/thumbs_3/ps.51/8/e/a/5/picture-uh=7db0416ec79028192e5a2f3d25c95a18-ps=8ea5b2a5e29c12b9ec6bc33d8a8f3ac9.jpg","locality":"Redwood Oaks","state":"CA","street":"230-232 Encina Ave","type":"Single-Family Home","zip":"94061"},{"area":"2,100 sqft","city":"Redwood City","img":"http://thumbs.trulia-cdn.com/pictures/thumbs_3/ps.51/3/6/3/a/picture-uh=dc5cd89743af7b13fd7b2ae67275d1-ps=363abed3eabaa313ae4e8fa6515a107f.jpg","locality":"Oak Knoll - Redwood Park","state":"CA","street":"159 Opal Ave","type":"Single-Family Home","zip":"94062"},{"area":"","city":"Redwood City","img":"http://thumbs.trulia-cdn.com/pictures/thumbs_3/ps.50/e/c/3/0/picture-uh=91efdff15acfc17802afc34559bbd1f-ps=ec30e844314cb8a72e2ba483ecd695c0.jpg","locality":"Fair Oaks","state":"CA","street":"3006 Middlefield Rd","type":"Income/Investment","zip":"94063"},{"area":"4,500 sqft","city":"Redwood City","img":"http://thumbs.trulia-cdn.com/pictures/thumbs_3/ps.51/1/6/a/1/picture-uh=2f996a1c669cd559305ba6784ba859-ps=16a11a890a8639a2bcb2f5dd01bf571.jpg","locality":"","state":"CA","street":"500 Kebet Rdg","type":"Single-Family Home","zip":"94062"},{"area":"","city":"Redwood City","img":"http://thumbs.trulia-cdn.com/pictures/thumbs_3/ps.50/a/d/b/9/picture-uh=7aa36d38cb445e373fbdf557626cf3-ps=adb91edd231c6634c79e7f7036c27d.jpg","locality":"Roosevelt","state":"CA","street":"1131-1133 Hudson St","type":"Single-Family Home","zip":"94061"},{"area":"","city":"Redwood City","img":"http://thumbs.trulia-cdn.com/pictures/thumbs_3/ps.50/9/6/3/4/picture-uh=fdc8ab7254828112bc79cf17678cfb-ps=9634bcf3d3eb4e2fa7ec98be6f4b7575.jpg","locality":"Palm Park","state":"CA","street":"1617-1619 Union Ave","type":"Single-Family Home","zip":"94061"},{"area":"2,540 sqft","city":"Redwood City","img":"http://thumbs.trulia-cdn.com/pictures/thumbs_3/ps.50/f/b/d/9/picture-uh=f99bb63140c343b528cbd177675528-ps=fbd99d7e1842c0fc786d0dcd59b83.jpg","locality":"Redwood Village","state":"CA","street":"2886 Bay Rd","type":"Income/Investment","zip":"94063"},{"area":"1,160 sqft","city":"Redwood City","img":"http://thumbs.trulia-cdn.com/pictures/thumbs_3/ps.51/d/3/1/f/picture-uh=cf99536e757061289a934efb4a781a98-ps=d31fa6f7eaee4353a397a91fd5f1aae.jpg","locality":"Oak Knoll - Redwood Park","state":"CA","street":"380 Alameda De Las Pulgas","type":"Single-Family Home","zip":"94062"},{"area":"720 sqft","city":"Redwood City","img":"http://thumbs.trulia-cdn.com/pictures/thumbs_3/ps.48/f/7/8/7/picture-uh=50ce7f1a627556b95a39dedca357-ps=f7873c2039b313387e5e677d3589eb6.jpg","locality":"","state":"CA","street":" Warrington Ave","type":"Single-Family Home","zip":"94063"},{"area":"1,400 sqft","city":"Redwood City","img":"http://thumbs.trulia-cdn.com/pictures/thumbs_3/ps.48/2/5/e/0/picture-uh=78f3a845dd3f0e1ecd24569451aa24-ps=25e0b4f45417b4ab9d2346cd469ec65a.jpg","locality":"Farm Hills","state":"CA","street":" Red Oak Way","type":"Single-Family Home","zip":"94061"},{"area":"1,991 sqft","city":"Redwood City","img":"http://thumbs.trulia-cdn.com/pictures/thumbs_3/ps.48/2/e/6/5/picture-uh=30763197bab771118d9a0dbea652ea9-ps=2e6560802a5799466c49c2a92a2449b9.jpg","locality":"Palm Park","state":"CA","street":" Oak Ave","type":"Single-Family Home","zip":"94061"},{"area":"","city":"Redwood City","img":"http://thumbs.trulia-cdn.com/pictures/thumbs_3/ps.50/f/1/c/7/picture-uh=c0771e8eed518c3db1d45bc223de7047-ps=f1c7dbe470ccab6ccf9156d4c8e564bc.jpg","locality":"","state":"CA","street":" Oakside Ave","type":"Multi-Family Home","zip":"94063"},{"area":"1,664 sqft","city":"Redwood City","img":"http://thumbs.trulia-cdn.com/pictures/thumbs_3/ps.40/c/f/f/a/picture-uh=271fda4b79aef8cd3a21977c3475e696-ps=cffa8596209d2fc3fbfec89b6c3ed91.jpg","locality":"Friendly Acres","state":"CA","street":" 4th Ave","type":"Single-Family Home","zip":"94063"},{"area":"910 sqft","city":"Redwood City","img":"http://thumbs.trulia-cdn.com/pictures/thumbs_3/ps.46/f/2/a/7/picture-uh=964852a2572fdaaec01ecd19a46920c2-ps=f2a75f3be35ccd86537467b267d47fbc.jpg","locality":"Fair Oaks","state":"CA","street":" Williams Ave","type":"Single-Family Home","zip":"94063"},{"area":"1,590 sqft","city":"Redwood City","img":"http://thumbs.trulia-cdn.com/pictures/thumbs_3/ps.46/9/f/9/8/picture-uh=74eb5daed359457a683c8fb83d04063-ps=9f98dfcbc17727669a9f39ebeef612e3.jpg","locality":"Oak Knoll - Redwood Park","state":"CA","street":" Eaton Ave","type":"Single-Family Home","zip":"94062"},{"area":"1,620 sqft","city":"Redwood City","img":"http://thumbs.trulia-cdn.com/pictures/thumbs_3/ps.41/6/5/c/0/picture-uh=46fdac726b81961b3aac6c57baa1129-ps=65c06d944cc61cf75d37184481754d.jpg","locality":"Palm Park","state":"CA","street":" Oxford St","type":"Single-Family Home","zip":"94061"},{"area":"3,350 sqft","city":"Redwood City","img":"http://thumbs.trulia-cdn.com/pictures/thumbs_3/ps.46/6/3/7/6/picture-uh=47de2ae1f0e0d09b3873902032a65f22-ps=637648c8bb7db98266bb95e19fb464e.jpg","locality":"Farm Hills","state":"CA","street":" Hillcrest Way","type":"Single-Family Home","zip":"94062"},{"area":"1,780 sqft","city":"Redwood City","img":"http://thumbs.trulia-cdn.com/pictures/thumbs_3/ps.49/f/6/7/e/picture-uh=99d3a2bc4d82f612c8cb5ce35b1dc271-ps=f67e6e3c5bf36620a572b219f13846.jpg","locality":"Redwood Oaks","state":"CA","street":" Cypress St","type":"Single-Family Home","zip":"94061"},{"area":"","city":"Redwood City","img":"http://thumbs.trulia-cdn.com/pictures/thumbs_3/ps.45/9/7/8/4/picture-uh=f5ef4534c3f3d82de415988a70df3fca-ps=978497bccb7e3c394bddacb8685c89f5.jpg","locality":"","state":"CA","street":" Hampshire Ave","type":"Multi-Family Home","zip":"94063"},{"area":"1,040 sqft","city":"Redwood City","img":"http://thumbs.trulia-cdn.com/pictures/thumbs_3/ps.48/f/4/b/0/picture-uh=70947def45d030c64e1a30b34dead55b-ps=f4b03cd290d4ed51fdf8c4c93ab5b686.jpg","locality":"","state":"CA","street":" Palomar Dr","type":"Single-Family Home","zip":"94062"},{"area":"1,300 sqft","city":"Redwood City","img":"http://thumbs.trulia-cdn.com/pictures/thumbs_3/ps.39/3/4/e/3/picture-uh=a7fe731367bfd512473a6b0f4cdf0bc-ps=34e33362d1d3c29f22cf1a639bfc41fc.jpg","locality":"Centennial","state":"CA","street":" A St","type":"Single-Family Home","zip":"94063"},{"area":"","city":"Redwood City","img":"http://thumbs.trulia-cdn.com/pictures/thumbs_3/ps.48/f/5/7/4/picture-uh=a5d3993af0865ca77f4f6596edef704c-ps=f5747fbd8928a37f2975bd2b02e89c7.jpg","locality":"Friendly Acres","state":"CA","street":"3201-3203 Hoover St","type":"Single-Family Home","zip":"94063"},{"area":"1,640 sqft","city":"Redwood City","img":"http://thumbs.trulia-cdn.com/pictures/thumbs_3/ps.38/5/7/f/9/picture-uh=eab782d6fa8eb68ef0cba566df2d6b7a-ps=57f949a332f581a928f3b8e2cd9ffa2.jpg","locality":"Staumbaugh Heller","state":"CA","street":" Spring St","type":"Single-Family Home","zip":"94063"},{"area":"1,470 sqft","city":"Redwood City","img":"http://thumbs.trulia-cdn.com/pictures/thumbs_3/ps.45/f/3/d/c/picture-uh=a2e8c336a6a5d41cbe2e5a63b5b37a6-ps=f3dc5cce6242e455be49c5940ae323.jpg","locality":"Woodside Plaza","state":"CA","street":" Sussex Way","type":"Single-Family Home","zip":"94061"},{"area":"1,360 sqft","city":"Redwood City","img":"http://thumbs.trulia-cdn.com/pictures/thumbs_3/ps.45/b/6/2/8/picture-uh=849aaef3f89f43806bd11aea65aec31-ps=b628b69df84968ac51583f8f8a833e9.jpg","locality":"Friendly Acres","state":"CA","street":" Page St","type":"Single-Family Home","zip":"94063"},{"area":"2,510 sqft","city":"Redwood City","img":"http://thumbs.trulia-cdn.com/pictures/thumbs_3/ps.45/c/8/5/7/picture-uh=8c59b15e7aafb14967a68ad932307c-ps=c85745d240c21b65f8a079aa586165.jpg","locality":"Roosevelt","state":"CA","street":" Madison Ave","type":"Single-Family Home","zip":"94061"},{"area":"1,070 sqft","city":"Redwood City","img":"http://thumbs.trulia-cdn.com/pictures/thumbs_3/ps.38/3/c/9/e/picture-uh=18321ddd36a934af5b37729a23f2415-ps=3c9e027ee49968aae771af5076fc33.jpg","locality":"Roosevelt","state":"CA","street":" Jackson Ave","type":"Single-Family Home","zip":"94061"},{"area":"1,110 sqft","city":"Redwood City","img":"http://thumbs.trulia-cdn.com/pictures/thumbs_3/ps.39/c/3/8/1/picture-uh=dc9c2fb343bc72cd99e96f9df1c9961-ps=c381786a79c9d850f8bb12b5f225190.jpg","locality":"Farm Hills","state":"CA","street":" Dover Rd","type":"Single-Family Home","zip":"94061"},{"area":"4,437 sqft","city":"Redwood City","img":"http://thumbs.trulia-cdn.com/pictures/thumbs_3/ps.46/b/9/5/3/picture-uh=98780b6902a9181cf3d7cd9b32f1391-ps=b95328633e5e9aaf6fd0b8fc58ce1f.jpg","locality":"Fair Oaks","state":"CA","street":" 4th Ave","type":"Multi-Family Home","zip":"94063"},{"area":"2,400 sqft","city":"Redwood City","img":"http://thumbs.trulia-cdn.com/pictures/thumbs_3/ps.38/e/9/5/d/picture-uh=8b30f3f26295b28ee41f1edc891e97-ps=e95dd8173355169c26ae32bcb0e194.jpg","locality":"Roosevelt","state":"CA","street":" Avenue Del Ora","type":"Single-Family Home","zip":"94062"},{"area":"2,060 sqft","city":"Redwood City","img":"http://thumbs.trulia-cdn.com/pictures/thumbs_3/ps.40/d/b/e/a/picture-uh=c9b296e35e6ae3446ccf233a23e76-ps=dbea42d340facb128d572429570ecf4.jpg","locality":"","state":"CA","street":" Marlborough Ave","type":"Single-Family Home","zip":"94063"},{"area":"","city":"Redwood City","img":"http://thumbs.trulia-cdn.com/pictures/thumbs_3/ps.37/9/a/2/a/picture-uh=6fa8ad3427ab221d69b99a5bc152b60-ps=9a2ac691738231f7d19dd91a8683d06a.jpg","locality":"Friendly Acres","state":"CA","street":" Jones Ct","type":"Unspecified","zip":"94063"},{"area":"","city":"Redwood City","img":"http://thumbs.trulia-cdn.com/pictures/thumbs_3/ps.43/d/5/8/c/picture-uh=f9d371b4688a0adb7a83035a93f3e5-ps=d58ca746fea92fd5c4cecf7999030d0.jpg","locality":"Palm Park","state":"CA","street":" Valota Rd","type":"Single-Family Home","zip":"94061"},{"area":"1,330 sqft","city":"Redwood City","img":"http://thumbs.trulia-cdn.com/pictures/thumbs_3/ps.42/c/a/6/4/picture-uh=61a9a36cec2332531d517c3ac3b9416e-ps=ca6472122df98bd80963bf5a26cdca.jpg","locality":"","state":"CA","street":" Hurlingame Ave","type":"Single-Family Home","zip":"94063"},{"area":"730 sqft","city":"Redwood City","img":"http://thumbs.trulia-cdn.com/pictures/thumbs_3/ps.38/2/e/9/4/picture-uh=fe898128dde0b8423b5011a07168b87-ps=2e94ea59495fa594b5e2ca2d13fb9e.jpg","locality":"","state":"CA","street":" Nimitz Ave","type":"Single-Family Home","zip":"94061"},{"area":"","city":"Redwood City","img":"http://thumbs.trulia-cdn.com/pictures/thumbs_3/ps.37/9/a/2/a/picture-uh=6fa8ad3427ab221d69b99a5bc152b60-ps=9a2ac691738231f7d19dd91a8683d06a.jpg","locality":"","state":"CA","street":" Skyline Blvd","type":"Unspecified","zip":"94062"},{"area":"1,420 sqft","city":"Redwood City","img":"http://thumbs.trulia-cdn.com/pictures/thumbs_3/ps.37/5/4/c/2/picture-uh=2bc5f4a12ae83884de9ddd9e62154e0-ps=54c2678bbef5c222e823d35144136.jpg","locality":"Roosevelt","state":"CA","street":" Iris St","type":"Single-Family Home","zip":"94061"},{"area":"","city":"Redwood City","img":"http://thumbs.trulia-cdn.com/pictures/thumbs_3/ps.2/b/f/8/2/picture-uh=5e5241ee327fedac2c3b269c1de55be-ps=bf8221dbb58b8035b58b618f7df50e3.jpg","locality":"Staumbaugh Heller","state":"CA","street":" Cedar St","type":"Single-Family Home","zip":"94063"},{"area":"","city":"Redwood City","img":"http://thumbs.trulia-cdn.com/pictures/thumbs_3/ps.29/2/0/4/b/picture-uh=cc29dbfc89c2102719f1102462c8baaf-ps=204b7d767265403597abd8cbe857589.jpg","locality":"Redwood Shores","state":"CA","street":" Cork Harbour Cir","type":"Condo","zip":"94065"},{"area":"","city":"Redwood City","img":"http://thumbs.trulia-cdn.com/pictures/thumbs_3/ps.27/7/c/b/2/picture-uh=9beeacaf27f62ae271ddc2dd37daa0-ps=7cb2544620acde978fc935c3e8b923.jpg","locality":"Redwood Village","state":"CA","street":" Northumberland Ave","type":"Single-Family Home","zip":"94063"},{"area":"733 sqft","city":"Redwood City","img":"http://thumbs.trulia-cdn.com/pictures/thumbs_3/ps.20/9/e/1/d/picture-uh=61b055737afa3a99a31bb32d6cec8b15-ps=9e1d857246da3b8247a695f8c03cfb.jpg","locality":"Oak Knoll - Redwood Park","state":"CA","street":" Claremont Ave","type":"Unspecified","zip":"94062"},{"area":"1,300 sqft","city":"Redwood City","img":"http://thumbs.trulia-cdn.com/pictures/thumbs_3/ps.11/5/4/b/c/picture-uh=62da33a14739698c338eaf5e051e576-ps=54bc8fc256069595a5f8bbaf71a677.jpg","locality":"","state":"CA","street":" Warrington Ave","type":"Single-Family Home","zip":"94063"},{"area":"","city":"Redwood City","img":"http://thumbs.trulia-cdn.com/pictures/thumbs_3/ps.25/3/a/8/a/picture-uh=964bedd8e2316f6f6f788b4deedaf6e-ps=3a8a706078aa68918a3cf2ec2b87af6d.jpg","locality":"Friendly Acres","state":"CA","street":" Hoover St","type":"Single-Family Home","zip":"94063"},{"area":"800 sqft","city":"Redwood City","img":"http://thumbs.trulia-cdn.com/pictures/thumbs_3/ps.15/1/c/1/f/picture-uh=ea866c29406cccc4a638cc65acada8-ps=1c1f83765e55437cb2de6e2fb96bf020.jpg","locality":"Fair Oaks","state":"CA","street":" Pacific Ave","type":"Single-Family Home","zip":"94063"},{"area":"","city":"Redwood City","img":"http://thumbs.trulia-cdn.com/pictures/thumbs_3/ps.24/5/2/1/3/picture-uh=f51ebb25eb224c69a75597311a09161-ps=5213e5a44164f0f430907bd4c58763.jpg","locality":"Fair Oaks","state":"CA","street":" Curtis Ave","type":"Unspecified","zip":"94063"},{"area":"","city":"Redwood City","img":"http://thumbs.trulia-cdn.com/pictures/thumbs_3/ps.35/9/a/2/a/picture-uh=48d2dd3ed9d23f5ba0e4c036d5bbce4-ps=9a2ac691738231f7d19dd91a8683d06a.jpg","locality":"Palm Park","state":"CA","street":" St Francis St","type":"Unspecified","zip":"94061"},{"area":"1,010 sqft","city":"Redwood City","img":"http://thumbs.trulia-cdn.com/pictures/thumbs_3/ps.52/0/8/8/b/picture-uh=f38eb183de20b787cf64e763d7d74e25-ps=088bc49d830bc983e3f30c1f85e77f3.jpg","locality":"Redwood Shores","state":"CA","street":"831 Portwalk Pl","type":"Condo","zip":"94065"},{"area":"640 sqft","city":"Redwood City","img":"http://static.trulia-cdn.com/images/icons/no_photo_icon_lg.gif","locality":"Centennial","state":"CA","street":"418 Alden St","type":"Single-Family Home","zip":"94063"},{"area":"1,120 sqft","city":"Redwood City","img":"http://static.trulia-cdn.com/images/icons/no_photo_icon_lg.gif","locality":"","state":"CA","street":"3015 E Bayshore Rd #453","type":"Mobile/Manufactured","zip":"94063"},{"area":"880 sqft","city":"Redwood City","img":"http://static.trulia-cdn.com/images/icons/no_photo_icon_lg.gif","locality":"","state":"CA","street":" Belmont Ave","type":"Single-Family Home","zip":"94061"},{"area":"1,450 sqft","city":"Redwood City","img":"http://static.trulia-cdn.com/images/icons/no_photo_icon_lg.gif","locality":"","state":"CA","street":" 12th Ave","type":"Single-Family Home","zip":"94063"},{"area":"1,310 sqft","city":"Redwood City","img":"http://static.trulia-cdn.com/images/icons/no_photo_icon_lg.gif","locality":"","state":"CA","street":" Edgewood Rd","type":"Single-Family Home","zip":"94062"},{"area":"1,630 sqft","city":"Redwood City","img":"http://static.trulia-cdn.com/images/icons/no_photo_icon_lg.gif","locality":"Farm Hills","state":"CA","street":" Farm Hill Blvd","type":"Single-Family Home","zip":"94061"},{"area":"","city":"Redwood City","img":"http://static.trulia-cdn.com/images/icons/no_photo_icon_lg.gif","locality":"Roosevelt","state":"CA","street":" Lowell St","type":"Unspecified","zip":"94062"},{"area":"2,684 sqft","city":"Redwood City","img":"http://static.trulia-cdn.com/images/icons/no_photo_icon_lg.gif","locality":"","state":"CA","street":" Oakside Ave","type":"Multi-Family Home","zip":"94063"},{"area":"1,924 sqft","city":"Redwood City","img":"http://static.trulia-cdn.com/images/icons/no_photo_icon_lg.gif","locality":"Palm Park","state":"CA","street":" Kentfield Ave","type":"Condo","zip":"94061"},{"area":"1,270 sqft","city":"Redwood City","img":"http://static.trulia-cdn.com/images/icons/no_photo_icon_lg.gif","locality":"Friendly Acres","state":"CA","street":" Page St","type":"Single-Family Home","zip":"94063"},{"area":"1,020 sqft","city":"Redwood City","img":"http://static.trulia-cdn.com/images/icons/no_photo_icon_lg.gif","locality":"Woodside Plaza","state":"CA","street":" Hempstead Pl","type":"Single-Family Home","zip":"94061"},{"area":"840 sqft","city":"Redwood City","img":"http://static.trulia-cdn.com/images/icons/no_photo_icon_lg.gif","locality":"Palm Park","state":"CA","street":" Gordon St","type":"Single-Family Home","zip":"94061"},{"area":"1,160 sqft","city":"Redwood City","img":"http://static.trulia-cdn.com/images/icons/no_photo_icon_lg.gif","locality":"Palm Park","state":"CA","street":" Kentfield Ave","type":"Single-Family Home","zip":"94061"},{"area":"","city":"Redwood City","img":"http://static.trulia-cdn.com/images/icons/no_photo_icon_lg.gif","locality":"","state":"CA","street":" Hurlingame Ave","type":"Single-Family Home","zip":"94063"},{"area":"920 sqft","city":"Redwood City","img":"http://static.trulia-cdn.com/images/icons/no_photo_icon_lg.gif","locality":"Friendly Acres","state":"CA","street":" 10th Ave","type":"Single-Family Home","zip":"94063"},{"area":"1,480 sqft","city":"Redwood City","img":"http://static.trulia-cdn.com/images/icons/no_photo_icon_lg.gif","locality":"Redwood Village","state":"CA","street":" Scott Ave","type":"Single-Family Home","zip":"94063"},{"area":"","city":"Redwood City","img":"http://static.trulia-cdn.com/images/icons/no_photo_icon_lg.gif","locality":"Friendly Acres","state":"CA","street":" 10th Ave","type":"Multi-Family Home","zip":"94063"},{"area":"1,320 sqft","city":"Redwood City","img":"http://static.trulia-cdn.com/images/icons/no_photo_icon_lg.gif","locality":"Redwood Shores","state":"CA","street":" Teredo Dr","type":"Single-Family Home","zip":"94065"},{"area":"1,040 sqft","city":"Redwood City","img":"http://static.trulia-cdn.com/images/icons/no_photo_icon_lg.gif","locality":"Woodside Plaza","state":"CA","street":" Maryland St","type":"Single-Family Home","zip":"94061"},{"area":"870 sqft","city":"Redwood City","img":"http://static.trulia-cdn.com/images/icons/no_photo_icon_lg.gif","locality":"Friendly Acres","state":"CA","street":" Hoover St","type":"Single-Family Home","zip":"94063"},{"area":"1,157 sqft","city":"Redwood City","img":"http://static.trulia-cdn.com/images/icons/no_photo_icon_lg.gif","locality":"Farm Hills","state":"CA","street":" Farm Hill Blvd #309","type":"Condo","zip":"94061"},{"area":"1,200 sqft","city":"Redwood City","img":"http://static.trulia-cdn.com/images/icons/no_photo_icon_lg.gif","locality":"","state":"CA","street":" Spring St","type":"Single-Family Home","zip":"94063"},{"area":"1,500 sqft","city":"Redwood City","img":"http://static.trulia-cdn.com/images/icons/no_photo_icon_lg.gif","locality":"Palm Park","state":"CA","street":" Hudson St","type":"Single-Family Home","zip":"94061"},{"area":"2,166 sqft","city":"Redwood City","img":"http://static.trulia-cdn.com/images/icons/no_photo_icon_lg.gif","locality":"Staumbaugh Heller","state":"CA","street":" Hilton St","type":"Multi-Family Home","zip":"94063"},{"area":"","city":"Redwood City","img":"http://static.trulia-cdn.com/images/icons/no_photo_icon_lg.gif","locality":"Redwood Shores","state":"CA","street":" Baltic Cir #604","type":"Unspecified","zip":"94065"},{"area":"1,240 sqft","city":"Redwood City","img":"http://static.trulia-cdn.com/images/icons/no_photo_icon_lg.gif","locality":"Oak Knoll - Redwood Park","state":"CA","street":" Oakdale St","type":"Single-Family Home","zip":"94062"},{"area":"390 sqft","city":"Redwood City","img":"http://static.trulia-cdn.com/images/icons/no_photo_icon_lg.gif","locality":"Palm Park","state":"CA","street":" Hudson St #109","type":"Unspecified","zip":"94061"},{"area":"","city":"Redwood City","img":"http://static.trulia-cdn.com/images/icons/no_photo_icon_lg.gif","locality":"","state":"CA","street":" Columbia Ave","type":"Unspecified","zip":"94063"},{"area":"1,400 sqft","city":"Redwood City","img":"http://static.trulia-cdn.com/images/icons/no_photo_icon_lg.gif","locality":"Roosevelt","state":"CA","street":" Jefferson Ave","type":"Single-Family Home","zip":"94062"},{"area":"","city":"Redwood City","img":"http://static.trulia-cdn.com/images/icons/no_photo_icon_lg.gif","locality":"","state":"CA","street":" Middlefield Rd","type":"Unspecified","zip":"94063"},{"area":"1,500 sqft","city":"Redwood City","img":"http://static.trulia-cdn.com/images/icons/no_photo_icon_lg.gif","locality":"","state":"CA","street":" G St","type":"Single-Family Home","zip":"94063"},{"area":"1,860 sqft","city":"Redwood City","img":"http://static.trulia-cdn.com/images/icons/no_photo_icon_lg.gif","locality":"Farm Hills","state":"CA","street":" Chesterton Ave","type":"Single-Family Home","zip":"94061"},{"area":"1,400 sqft","city":"Redwood City","img":"http://static.trulia-cdn.com/images/icons/no_photo_icon_lg.gif","locality":"Redwood Oaks","state":"CA","street":" Oakwood Dr","type":"Single-Family Home","zip":"94061"},{"area":"","city":"Redwood City","img":"http://static.trulia-cdn.com/images/icons/no_photo_icon_lg.gif","locality":"Redwood Shores","state":"CA","street":" Cork Harbour Cir A","type":"Unspecified","zip":"94065"},{"area":"1,120 sqft","city":"Redwood City","img":"http://thumbs.trulia-cdn.com/pictures/thumbs_3/ps.50/5/f/1/f/picture-uh=e41fc66cb3805816a44d973820671c-ps=5f1fbfb5a91f539525e1423f1455768.jpg","locality":"Woodside Plaza","state":"CA","street":" Washington Ave","type":"Single-Family Home","zip":"94061"},{"area":"1,920 sqft","city":"Redwood City","img":"http://thumbs.trulia-cdn.com/pictures/thumbs_3/ps.49/5/d/a/7/picture-uh=92fc5693b5eb9c8aae80e5a9d050cfdd-ps=5da7abecf32e0db8b8d920aabae096.jpg","locality":"Oak Knoll - Redwood Park","state":"CA","street":" Somerset St","type":"Single-Family Home","zip":"94062"},{"area":"1,480 sqft","city":"Redwood City","img":"http://thumbs.trulia-cdn.com/pictures/thumbs_3/ps.49/6/a/8/f/picture-uh=327be62d585b629fc0587f9b5bab8b-ps=6a8fc5dd5c35f46b7e2b33774b9886.jpg","locality":"","state":"CA","street":" 3rd Ave","type":"Single-Family Home","zip":"94063"},{"area":"1,970 sqft","city":"Redwood City","img":"http://thumbs.trulia-cdn.com/pictures/thumbs_3/ps.49/d/0/9/4/picture-uh=ff53111080fc3d96781d65141d5c8f75-ps=d094f9fae82d23f548c1a99c242b8eb1.jpg","locality":"Farm Hills","state":"CA","street":" Crompton Rd","type":"Single-Family Home","zip":"94061"},{"area":"1,630 sqft","city":"Redwood City","img":"http://thumbs.trulia-cdn.com/pictures/thumbs_3/ps.49/c/0/9/0/picture-uh=e5f24c63c9d03bc998d19197187ed06d-ps=c0907d30eabb5a844b893dd233534d50.jpg","locality":"Farm Hills","state":"CA","street":" Lakeview Way","type":"Single-Family Home","zip":"94062"},{"area":"2,310 sqft","city":"Redwood City","img":"http://thumbs.trulia-cdn.com/pictures/thumbs_3/ps.42/c/e/6/f/picture-uh=dabe18a74c2e1df36e2a73f3b210bcbc-ps=ce6f9fdbfd442b5b1c8832a963e07960.jpg","locality":"","state":"CA","street":" Fair Oaks Ave","type":"Single-Family Home","zip":"94063"},{"area":"2,490 sqft","city":"Redwood City","img":"http://thumbs.trulia-cdn.com/pictures/thumbs_3/ps.49/8/2/2/0/picture-uh=5e2cb96e56f4492f3674757a4e177b-ps=822024ebfc84c1765c5bf67ba8ac889.jpg","locality":"Redwood Oaks","state":"CA","street":" Bradbury Ln","type":"Single-Family Home","zip":"94061"},{"area":"1,360 sqft","city":"Redwood City","img":"http://thumbs.trulia-cdn.com/pictures/thumbs_3/ps.49/e/2/b/a/picture-uh=c3d9876e9e11aa4b4b82e63eeac7840-ps=e2ba37f29efa3c32f47930cd9af56c58.jpg","locality":"Oak Knoll - Redwood Park","state":"CA","street":" Hillcrest Rd","type":"Single-Family Home","zip":"94062"},{"area":"1,300 sqft","city":"Redwood City","img":"http://thumbs.trulia-cdn.com/pictures/thumbs_3/ps.49/9/8/e/b/picture-uh=4de2cb78a57139d8d514e86de47fc84-ps=98eb67a50d493358d24d3163574e0ab.jpg","locality":"Friendly Acres","state":"CA","street":" 18th Ave","type":"Single-Family Home","zip":"94063"},{"area":"1,300 sqft","city":"Redwood City","img":"http://thumbs.trulia-cdn.com/pictures/thumbs_3/ps.48/c/e/1/5/picture-uh=7d89f8e6aeb2a466c2663ebd2c622d3-ps=ce159190b3f821f1d440be8cc1862e6f.jpg","locality":"Staumbaugh Heller","state":"CA","street":" Maple St","type":"Single-Family Home","zip":"94063"},{"area":"","city":"Redwood City","img":"http://thumbs.trulia-cdn.com/pictures/thumbs_3/ps.48/9/a/2/a/picture-uh=aa1d222970d15a60a31653c9411560cc-ps=9a2ac691738231f7d19dd91a8683d06a.jpg","locality":"Woodside Hills","state":"CA","street":" Woodside Dr","type":"Unspecified","zip":"94062"},{"area":"1,032 sqft","city":"Redwood City","img":"http://thumbs.trulia-cdn.com/pictures/thumbs_3/ps.48/b/3/c/e/picture-uh=b4afed6741866e8b2ce5eac96753f72e-ps=b3ce90e811cf99c4ecc79521a9ab60.jpg","locality":"Staumbaugh Heller","state":"CA","street":" Hilton St","type":"Condo","zip":"94063"},{"area":"2,320 sqft","city":"Redwood City","img":"http://thumbs.trulia-cdn.com/pictures/thumbs_3/ps.48/2/6/a/6/picture-uh=2c1b79aa9151eb87b13335376b44d9d4-ps=26a6809ecbaadda0824ec1d385f79812.jpg","locality":"Farm Hills","state":"CA","street":" Eden Bower Ln","type":"Single-Family Home","zip":"94061"},{"area":"1,504 sqft","city":"Redwood City","img":"http://thumbs.trulia-cdn.com/pictures/thumbs_3/ps.48/3/3/1/b/picture-uh=8ce4e1716e3217f133c98e995e6b530-ps=331b7eb695be3989cdcdc2b02b682136.jpg","locality":"Roosevelt","state":"CA","street":" Madison Ave","type":"Multi-Family Home","zip":"94061"},{"area":"","city":"Redwood City","img":"http://thumbs.trulia-cdn.com/pictures/thumbs_3/ps.47/9/a/2/a/picture-uh=4463701153d138081e1e77a5b8b29-ps=9a2ac691738231f7d19dd91a8683d06a.jpg","locality":"Roosevelt","state":"CA","street":" Madison Ave","type":"Unspecified","zip":"94061"},{"area":"","city":"Redwood City","img":"http://thumbs.trulia-cdn.com/pictures/thumbs_3/ps.47/9/a/2/a/picture-uh=4463701153d138081e1e77a5b8b29-ps=9a2ac691738231f7d19dd91a8683d06a.jpg","locality":"","state":"CA","street":" Oakside Ave #538","type":"Unspecified","zip":"94063"},{"area":"1,570 sqft","city":"Redwood City","img":"http://thumbs.trulia-cdn.com/pictures/thumbs_3/ps.48/1/6/c/9/picture-uh=f9b2a5182c184bba684b9eb4955bbd-ps=16c9ecda5be0ee2e7d208977ad1bb2c5.jpg","locality":"","state":"CA","street":" 11th Ave","type":"Single-Family Home","zip":"94063"},{"area":"2,580 sqft","city":"Redwood City","img":"http://thumbs.trulia-cdn.com/pictures/thumbs_3/ps.47/7/a/1/b/picture-uh=59913322cf265990b64f913dd97c4c3-ps=7a1bb59acadad692a4928df029137a84.jpg","locality":"Friendly Acres","state":"CA","street":" Page St","type":"Single-Family Home","zip":"94063"},{"area":"","city":"Redwood City","img":"http://thumbs.trulia-cdn.com/pictures/thumbs_3/ps.47/9/a/2/a/picture-uh=4463701153d138081e1e77a5b8b29-ps=9a2ac691738231f7d19dd91a8683d06a.jpg","locality":"Friendly Acres","state":"CA","street":" Jones Ct","type":"Unspecified","zip":"94063"},{"area":"3,424 sqft","city":"Redwood City","img":"http://thumbs.trulia-cdn.com/pictures/thumbs_3/ps.47/6/8/4/4/picture-uh=e07191a2a89ac85c95de6f88cd3f-ps=6844e1cdb1b4eb185b75e965394f58f2.jpg","locality":"Farm Hills","state":"CA","street":" Woodridge Ct","type":"Single-Family Home","zip":"94061"},{"area":"980 sqft","city":"Redwood City","img":"http://thumbs.trulia-cdn.com/pictures/thumbs_3/ps.47/b/f/d/b/picture-uh=a371d83d5726568455cf17314984-ps=bfdb4a66f34052f95f8facbbaf4e2d6e.jpg","locality":"Woodside Plaza","state":"CA","street":" Crompton Rd","type":"Single-Family Home","zip":"94061"},{"area":"450 sqft","city":"Redwood City","img":"http://thumbs.trulia-cdn.com/pictures/thumbs_3/ps.47/1/e/b/1/picture-uh=6038aca4ef26fd88d461faddd1360c5-ps=1eb1cfb228511e7f150f61314dd759.jpg","locality":"Palm Park","state":"CA","street":" Hudson St #211","type":"Condo","zip":"94061"},{"area":"733 sqft","city":"Redwood City","img":"http://thumbs.trulia-cdn.com/pictures/thumbs_3/ps.47/9/e/1/d/picture-uh=459fcd72c94ed6d6f4e3ffe7bf2724-ps=9e1d857246da3b8247a695f8c03cfb.jpg","locality":"Oak Knoll - Redwood Park","state":"CA","street":" Claremont Ave #6","type":"Condo","zip":"94062"},{"area":"1,040 sqft","city":"Redwood City","img":"http://thumbs.trulia-cdn.com/pictures/thumbs_3/ps.47/9/7/d/5/picture-uh=5eea9cc53d26913407f1af1978d77d4-ps=97d520ade0b7467dce69ef77eeec618c.jpg","locality":"Friendly Acres","state":"CA","street":" Hoover St","type":"Single-Family Home","zip":"94063"},{"area":"1,350 sqft","city":"Redwood City","img":"http://thumbs.trulia-cdn.com/pictures/thumbs_3/ps.47/3/1/e/b/picture-uh=57b2fc91adbdf89e1563ac351df46b6-ps=31ebc56c56e5f2b5c62cd9c3afa6a642.jpg","locality":"Friendly Acres","state":"CA","street":" 15th Ave","type":"Single-Family Home","zip":"94063"},{"area":"1,400 sqft","city":"Redwood City","img":"http://thumbs.trulia-cdn.com/pictures/thumbs_3/ps.42/c/a/3/a/picture-uh=3f471bcadf440c7b6aafbbe6823d3-ps=ca3a7d32e8b51406821b54d785676d.jpg","locality":"Redwood Shores","state":"CA","street":" Boardwalk Pl #538","type":"Condo","zip":"94065"},{"area":"1,220 sqft","city":"Redwood City","img":"http://thumbs.trulia-cdn.com/pictures/thumbs_3/ps.47/8/7/9/6/picture-uh=cf8cbd87afbf166760ab951bdb2568e7-ps=879664ed25f66c2e4868ad759f8f3b1.jpg","locality":"Roosevelt","state":"CA","street":" Alameda De Las Pulgas","type":"Single-Family Home","zip":"94062"},{"area":"2,044 sqft","city":"Redwood City","img":"http://thumbs.trulia-cdn.com/pictures/thumbs_3/ps.47/5/a/6/2/picture-uh=cf8ec6f1cbf09b590df349d141c7b7-ps=5a6242adf08c289fb5feb87c7682e7e3.jpg","locality":"Roosevelt","state":"CA","street":" Roosevelt Ave","type":"Multi-Family Home","zip":"94061"},{"area":"1,990 sqft","city":"Redwood City","img":"http://thumbs.trulia-cdn.com/pictures/thumbs_3/ps.47/3/5/2/f/picture-uh=2c21b8106a81ad32879b7496a151fe26-ps=352ff250b462959ee9979cd616e6376e.jpg","locality":"Farm Hills","state":"CA","street":" Oak Ridge Dr","type":"Single-Family Home","zip":"94062"},{"area":"1,030 sqft","city":"Redwood City","img":"http://thumbs.trulia-cdn.com/pictures/thumbs_3/ps.47/d/7/6/4/picture-uh=b4d9a75c4e36ca451ffbbcb5f9c8c482-ps=d76473e6c1e84eddf6a0b3179bf780ba.jpg","locality":"Woodside Plaza","state":"CA","street":" Alameda De Las Pulgas","type":"Single-Family Home","zip":"94061"},{"area":"","city":"Redwood City","img":"http://thumbs.trulia-cdn.com/pictures/thumbs_3/ps.41/6/1/3/e/picture-uh=6d3787d477ecc78a173128db36cf2aa-ps=613ee2a4e68901bfb5916dbc06378c2.jpg","locality":"Redwood Shores","state":"CA","street":" Cork Harbour Cir","type":"Unspecified","zip":"94065"},{"area":"3,877 sqft","city":"Redwood City","img":"http://thumbs.trulia-cdn.com/pictures/thumbs_3/ps.46/9/e/6/e/picture-uh=76a52dbd3edfb0bc606cfbc87b48493-ps=9e6e9ee1070cec9122fb1c30df94e2.jpg","locality":"Staumbaugh Heller","state":"CA","street":" Stambaugh St","type":"Multi-Family Home","zip":"94063"},{"area":"1,280 sqft","city":"Redwood City","img":"http://thumbs.trulia-cdn.com/pictures/thumbs_3/ps.46/e/f/8/c/picture-uh=f1193ef8c153477d22c9eacfb8ebffdc-ps=ef8cbf7772f40a59e6adcffaf7f2898.jpg","locality":"Friendly Acres","state":"CA","street":" Hoover St","type":"Single-Family Home","zip":"94063"},{"area":"870 sqft","city":"Redwood City","img":"http://thumbs.trulia-cdn.com/pictures/thumbs_3/ps.46/5/4/c/8/picture-uh=f32a3b1bd29cacd7d7ea3336432ed-ps=54c8c75c51ef89a79bc0eb51823046.jpg","locality":"Fair Oaks","state":"CA","street":" 2nd Ave","type":"Single-Family Home","zip":"94063"},{"area":"970 sqft","city":"Redwood City","img":"http://thumbs.trulia-cdn.com/pictures/thumbs_3/ps.46/c/1/f/5/picture-uh=4760fc2d5c7d36c6ce2dfa681b467e0-ps=c1f5dc4a72826e7ef141186f1fcfa9.jpg","locality":"Centennial","state":"CA","street":" Lenolt St","type":"Single-Family Home","zip":"94063"},{"area":"1,310 sqft","city":"Redwood City","img":"http://thumbs.trulia-cdn.com/pictures/thumbs_3/ps.46/3/b/1/7/picture-uh=194397891c6bd1b56732d9440ad0bb-ps=3b17b7bc4999816b797c79272e6fe589.jpg","locality":"Oak Knoll - Redwood Park","state":"CA","street":" King St","type":"Single-Family Home","zip":"94062"},{"area":"2,513 sqft","city":"Redwood City","img":"http://thumbs.trulia-cdn.com/pictures/thumbs_3/ps.46/6/c/3/6/picture-uh=b58c2a44ba6364be53837a3fc045ef-ps=6c36ebc1a4c99f621d79024d92445.jpg","locality":"Roosevelt","state":"CA","street":" Cleveland St","type":"Multi-Family Home","zip":"94061"},{"area":"1,750 sqft","city":"Redwood City","img":"http://thumbs.trulia-cdn.com/pictures/thumbs_3/ps.46/c/3/7/e/picture-uh=61a5b3954cd339a22f29ae9ca023e132-ps=c37ef14398d49dbb67cf7b65185915f.jpg","locality":"Oak Knoll - Redwood Park","state":"CA","street":" Upland Rd","type":"Single-Family Home","zip":"94062"},{"area":"","city":"Redwood City","img":"http://thumbs.trulia-cdn.com/pictures/thumbs_3/ps.37/9/a/2/a/picture-uh=6fa8ad3427ab221d69b99a5bc152b60-ps=9a2ac691738231f7d19dd91a8683d06a.jpg","locality":"Roosevelt","state":"CA","street":" Cleveland St","type":"Unspecified","zip":"94061"},{"area":"1,570 sqft","city":"Redwood City","img":"http://thumbs.trulia-cdn.com/pictures/thumbs_3/ps.46/f/a/f/d/picture-uh=6be727fcbbe8edf8945fe86e74231fb-ps=fafdb4c3711985082f6a72c4338e72.jpg","locality":"","state":"CA","street":" Warrington Ave","type":"Single-Family Home","zip":"94063"},{"area":"1,540 sqft","city":"Redwood City","img":"http://thumbs.trulia-cdn.com/pictures/thumbs_3/ps.46/7/e/e/d/picture-uh=da6f17e66f134ac9c73bef9120a418c9-ps=7eed1d6762bbe230e0458c9ada4bd52d.jpg","locality":"Redwood Shores","state":"CA","street":" Spinnaker Pl","type":"Single-Family Home","zip":"94065"},{"area":"1,370 sqft","city":"Redwood City","img":"http://thumbs.trulia-cdn.com/pictures/thumbs_3/ps.46/a/8/c/3/picture-uh=a0b46ae56fa5a9eae917639599b0c0-ps=a8c3bfa469233e31962bbb497d8a56b5.jpg","locality":"Friendly Acres","state":"CA","street":" Page St","type":"Single-Family Home","zip":"94063"},{"area":"2,280 sqft","city":"Redwood City","img":"http://thumbs.trulia-cdn.com/pictures/thumbs_3/ps.46/a/0/b/8/picture-uh=729ec1c4a83cf8eb5c1699fc77cfcf89-ps=a0b8c7ed1c98493897d7d6a29c2cf7bc.jpg","locality":"Redwood Shores","state":"CA","street":" Whisper Ln","type":"Single-Family Home","zip":"94065"},{"area":"1,840 sqft","city":"Redwood City","img":"http://thumbs.trulia-cdn.com/pictures/thumbs_3/ps.46/c/9/c/b/picture-uh=39da4a23bb61411c56e76dbb36216b1d-ps=c9cb627a48afe7aaca9e5d4a34ca3b.jpg","locality":"Oak Knoll - Redwood Park","state":"CA","street":" Westgate St","type":"Single-Family Home","zip":"94062"},{"area":"1,850 sqft","city":"Redwood City","img":"http://thumbs.trulia-cdn.com/pictures/thumbs_3/ps.46/e/9/9/4/picture-uh=c9faa5a3d556a39e31add439d6d922a-ps=e994c2af89c24365c97759cbd6e7acae.jpg","locality":"Fair Oaks","state":"CA","street":" 3rd Ave","type":"Multi-Family Home","zip":"94063"},{"area":"1,637 sqft","city":"Redwood City","img":"http://thumbs.trulia-cdn.com/pictures/thumbs_3/ps.46/c/6/7/9/picture-uh=d45f89a6147d82edad96f2bc3202e19-ps=c6797dec10883784bfbb30cede9bdc86.jpg","locality":"Centennial","state":"CA","street":" Samson St","type":"Multi-Family Home","zip":"94063"},{"area":"890 sqft","city":"Redwood City","img":"http://thumbs.trulia-cdn.com/pictures/thumbs_3/ps.46/4/3/6/9/picture-uh=6814d5a5e61d32422456ed14339fffe-ps=4369c765b57d1a45ab37a3542fa4c38f.jpg","locality":"Friendly Acres","state":"CA","street":" Bay","type":"Single-Family Home","zip":"94063"},{"area":"927 sqft","city":"Redwood City","img":"http://thumbs.trulia-cdn.com/pictures/thumbs_3/ps.45/a/8/9/8/picture-uh=810e6c664c679553c7f9cc9796b1b4c-ps=a898cf401d1fceac54fe5cc060f44ccb.jpg","locality":"Redwood Shores","state":"CA","street":" Baltic Cir","type":"Condo","zip":"94065"},{"area":"","city":"Redwood City","img":"http://thumbs.trulia-cdn.com/pictures/thumbs_3/ps.45/a/8/9/8/picture-uh=810e6c664c679553c7f9cc9796b1b4c-ps=a898cf401d1fceac54fe5cc060f44ccb.jpg","locality":"Redwood Shores","state":"CA","street":" Baltic Cir #138","type":"Unspecified","zip":"94065"},{"area":"3,277 sqft","city":"Redwood City","img":"http://thumbs.trulia-cdn.com/pictures/thumbs_3/ps.45/3/4/a/f/picture-uh=e853e940ad30873ce457be7187fb83-ps=34af1417702fefb880fe464771897022.jpg","locality":"Roosevelt","state":"CA","street":" Jefferson Ave","type":"Multi-Family Home","zip":"94062"},{"area":"1,540 sqft","city":"Redwood City","img":"http://thumbs.trulia-cdn.com/pictures/thumbs_3/ps.45/9/0/e/7/picture-uh=e230be328e77b6b17b3f8e336cad84-ps=90e7a78fdfcd98751eb71b3ac2992a8.jpg","locality":"Woodside Plaza","state":"CA","street":" Maddux Dr","type":"Single-Family Home","zip":"94061"},{"area":"1,020 sqft","city":"Redwood City","img":"http://thumbs.trulia-cdn.com/pictures/thumbs_3/ps.45/b/2/8/f/picture-uh=c0cb6963a9c9bfd74614a1c22409837-ps=b28fb51c9b5b8feda964549f9c5ab8c.jpg","locality":"","state":"CA","street":" Rutherford Ave","type":"Single-Family Home","zip":"94061"},{"area":"1,330 sqft","city":"Redwood City","img":"http://thumbs.trulia-cdn.com/pictures/thumbs_3/ps.45/a/d/3/9/picture-uh=77e820a92072352487c596b476fabfa-ps=ad39dd71d433522733a070621a5de547.jpg","locality":"Woodside Plaza","state":"CA","street":" Massachusetts Ave","type":"Single-Family Home","zip":"94061"},{"area":"1,450 sqft","city":"Redwood City","img":"http://thumbs.trulia-cdn.com/pictures/thumbs_3/ps.45/7/2/6/b/picture-uh=5121965858668159df631e8f3f7194-ps=726b8e5ebafa968771d21e53dbc115f.jpg","locality":"Roosevelt","state":"CA","street":" Alameda De Las Pulgas","type":"Single-Family Home","zip":"94061"},{"area":"","city":"Redwood City","img":"http://thumbs.trulia-cdn.com/pictures/thumbs_3/ps.37/9/a/2/a/picture-uh=6fa8ad3427ab221d69b99a5bc152b60-ps=9a2ac691738231f7d19dd91a8683d06a.jpg","locality":"Redwood Village","state":"CA","street":" Broadway","type":"Unspecified","zip":"94063"},{"area":"","city":"Redwood City","img":"http://thumbs.trulia-cdn.com/pictures/thumbs_3/ps.37/9/a/2/a/picture-uh=6fa8ad3427ab221d69b99a5bc152b60-ps=9a2ac691738231f7d19dd91a8683d06a.jpg","locality":"Redwood Village","state":"CA","street":" Broadway","type":"Unspecified","zip":"94063"},{"area":"","city":"Redwood City","img":"http://thumbs.trulia-cdn.com/pictures/thumbs_3/ps.37/9/a/2/a/picture-uh=6fa8ad3427ab221d69b99a5bc152b60-ps=9a2ac691738231f7d19dd91a8683d06a.jpg","locality":"Redwood Village","state":"CA","street":" Broadway","type":"Unspecified","zip":"94063"},{"area":"990 sqft","city":"Redwood City","img":"http://thumbs.trulia-cdn.com/pictures/thumbs_3/ps.45/7/6/d/1/picture-uh=a0a350b62bf88f8eb1d572ca604edb1-ps=76d1bc595ba2ba45b114687c1b516b.jpg","locality":"Farm Hills","state":"CA","street":" Lancaster Way","type":"Single-Family Home","zip":"94061"},{"area":"1,310 sqft","city":"Redwood City","img":"http://thumbs.trulia-cdn.com/pictures/thumbs_3/ps.45/4/b/a/7/picture-uh=58ba26cd8b0bc19bca3c5a1fb2f6c8-ps=4ba7b65bc93bee1b4e181434e4f44da.jpg","locality":"","state":"CA","street":" Fair Oaks Ave","type":"Single-Family Home","zip":"94063"},{"area":"1,481 sqft","city":"Redwood City","img":"http://thumbs.trulia-cdn.com/pictures/thumbs_3/ps.45/1/4/e/a/picture-uh=f2c3c56698776275c6a67df882c8ae87-ps=14ea955d81a8c3dbdcb062b99e6d4e.jpg","locality":"Redwood Village","state":"CA","street":" Flynn Ave","type":"Single-Family Home","zip":"94063"},{"area":"1,424 sqft","city":"Redwood City","img":"http://thumbs.trulia-cdn.com/pictures/thumbs_3/ps.45/e/3/d/8/picture-uh=fa9eaafefae962e7b874686f979764-ps=e3d8c53d8e28ba3b27b4cc52315a07f.jpg","locality":"Redwood Shores","state":"CA","street":" Baltic Cir","type":"Condo","zip":"94065"},{"area":"","city":"Redwood City","img":"http://thumbs.trulia-cdn.com/pictures/thumbs_3/ps.47/9/a/2/a/picture-uh=40e3676d35f2c8739423ee37052ae92-ps=9a2ac691738231f7d19dd91a8683d06a.jpg","locality":"","state":"CA","street":" Chart Ln #182","type":"Unspecified","zip":"94065"},{"area":"980 sqft","city":"Redwood City","img":"http://static.trulia-cdn.com/images/icons/no_photo_icon_lg.gif","locality":"Centennial","state":"CA","street":" Flower St","type":"Single-Family Home","zip":"94063"},{"area":"890 sqft","city":"Redwood City","img":"http://static.trulia-cdn.com/images/icons/no_photo_icon_lg.gif","locality":"Roosevelt","state":"CA","street":" Roosevelt Ave","type":"Single-Family Home","zip":"94061"},{"area":"910 sqft","city":"Redwood City","img":"http://static.trulia-cdn.com/images/icons/no_photo_icon_lg.gif","locality":"Staumbaugh Heller","state":"CA","street":" Hilton St","type":"Single-Family Home","zip":"94063"},{"area":"2,730 sqft","city":"Redwood City","img":"http://static.trulia-cdn.com/images/icons/no_photo_icon_lg.gif","locality":"Woodside Plaza","state":"CA","street":" Fernside St","type":"Single-Family Home","zip":"94061"},{"area":"1,600 sqft","city":"Redwood City","img":"http://static.trulia-cdn.com/images/icons/no_photo_icon_lg.gif","locality":"Friendly Acres","state":"CA","street":" Hoover St","type":"Single-Family Home","zip":"94063"},{"area":"1,560 sqft","city":"Redwood City","img":"http://static.trulia-cdn.com/images/icons/no_photo_icon_lg.gif","locality":"Centennial","state":"CA","street":" A St","type":"Single-Family Home","zip":"94063"},{"area":"2,385 sqft","city":"Redwood City","img":"http://static.trulia-cdn.com/images/icons/no_photo_icon_lg.gif","locality":"Woodside Plaza","state":"CA","street":" Woodside Rd","type":"Multi-Family Home","zip":"94061"},{"area":"","city":"Redwood City","img":"http://static.trulia-cdn.com/images/icons/no_photo_icon_lg.gif","locality":"Woodside Plaza","state":"CA","street":" Woodside Rd","type":"Unspecified","zip":"94061"},{"area":"1,250 sqft","city":"Redwood City","img":"http://static.trulia-cdn.com/images/icons/no_photo_icon_lg.gif","locality":"Roosevelt","state":"CA","street":" Fulton St","type":"Single-Family Home","zip":"94061"},{"area":"2,330 sqft","city":"Redwood City","img":"http://static.trulia-cdn.com/images/icons/no_photo_icon_lg.gif","locality":"","state":"CA","street":" Inyo Pl","type":"Single-Family Home","zip":"94061"},{"area":"1,450 sqft","city":"Redwood City","img":"http://static.trulia-cdn.com/images/icons/no_photo_icon_lg.gif","locality":"Woodside Plaza","state":"CA","street":" Connecticut Dr","type":"Single-Family Home","zip":"94061"},{"area":"1,300 sqft","city":"Redwood City","img":"http://static.trulia-cdn.com/images/icons/no_photo_icon_lg.gif","locality":"","state":"CA","street":" Warrington Ave","type":"Single-Family Home","zip":"94063"},{"area":"2,010 sqft","city":"Redwood City","img":"http://static.trulia-cdn.com/images/icons/no_photo_icon_lg.gif","locality":"Centennial","state":"CA","street":" F St","type":"Single-Family Home","zip":"94063"},{"area":"1,280 sqft","city":"Redwood City","img":"http://static.trulia-cdn.com/images/icons/no_photo_icon_lg.gif","locality":"Redwood Shores","state":"CA","street":" Beacon Shores Dr","type":"Single-Family Home","zip":"94065"},{"area":"740 sqft","city":"Redwood City","img":"http://static.trulia-cdn.com/images/icons/no_photo_icon_lg.gif","locality":"","state":"CA","street":" Fair Oaks Ave","type":"Single-Family Home","zip":"94063"},{"area":"2,636 sqft","city":"Redwood City","img":"http://static.trulia-cdn.com/images/icons/no_photo_icon_lg.gif","locality":"Centennial","state":"CA","street":" Warren St","type":"Multi-Family Home","zip":"94063"},{"area":"","city":"Redwood City","img":"http://static.trulia-cdn.com/images/icons/no_photo_icon_lg.gif","locality":"Roosevelt","state":"CA","street":" Hudson St","type":"Unspecified","zip":"94061"},{"area":"2,280 sqft","city":"Redwood City","img":"http://static.trulia-cdn.com/images/icons/no_photo_icon_lg.gif","locality":"Redwood Shores","state":"CA","street":" Sealight Ln","type":"Single-Family Home","zip":"94065"},{"area":"","city":"Redwood City","img":"http://static.trulia-cdn.com/images/icons/no_photo_icon_lg.gif","locality":"","state":"CA","street":" Barkentine Ln #538","type":"Unspecified","zip":"94065"},null]